NORAD_CAT_ID,OBJECT_NAME,OBJECT_TYPE,EPOCH,MEAN_MOTION,ECCENTRICITY,INCLINATION,RA_OF_ASC_NODE,ARG_OF_PERICENTER,MEAN_ANOMALY,BSTAR,MEAN_MOTION_DOT,MEAN_MOTION_DDOT,TLE_LINE0,TLE_LINE1,TLE_LINE2,SEMIMAJOR_AXIS,PERIOD,APOGEE,PERIGEE,DECAYED
52132.0,STARLINK-3718,PAYLOAD,2022-08-16 14:00:01,15.08825074,0.0002384999999999,53.2164,150.0093,50.5074,246.1439,0.0021173,0.00033557,0.0,0 STARLINK-3718,1 52132U 22029AW  22228.58334491  .00033557  00000-0  21173-2 0  9990,2 52132  53.2164 150.0093 0002385  50.5074 246.1439 15.08825074 24514,6917.926,95.438,541.441,538.141,0.0
52132.0,STARLINK-3718,PAYLOAD,2022-08-16 22:00:00,15.08857707,0.0002473,53.2164,148.5135,51.5471,256.6819,-0.0012683,-0.00020427,0.0,0 STARLINK-3718,1 52132U 22029AW  22228.91667824 -.00020427  00000-0 -12683-2 0  9996,2 52132  53.2164 148.5135 0002473  51.5471 256.6819 15.08857707  1301,6917.826,95.436,541.4019999999998,537.98,0.0
52132.0,STARLINK-3718,PAYLOAD,2022-08-17 06:00:02,15.08833468,0.0002593,53.2162,147.0181,48.1113,271.7949,0.002838,0.00045162,0.0,0 STARLINK-3718,1 52132U 22029AW  22229.25002315  .00045162  00000-0  28380-2 0  9994,2 52132  53.2162 147.0181 0002593  48.1113 271.7949 15.08833468 24611,6917.9,95.438,541.559,537.972,0.0
52132.0,STARLINK-3718,PAYLOAD,2022-08-17 16:00:00,15.08839119,0.0002404,53.2162,145.1456,53.824,10.5393,0.0034255,0.00054652,0.0,0 STARLINK-3718,1 52132U 22029AW  22229.66667824  .00054652  00000-0  34255-2 0  9993,2 52132  53.2162 145.1456 0002404  53.8240  10.5393 15.08839119 24677,6917.8830000000025,95.438,541.411,538.085,0.0
52132.0,STARLINK-3718,PAYLOAD,2022-08-18 08:00:01,15.08865837,0.0002471,53.2159,142.1541,49.1483,38.4625,5.2987e-05,5.56e-06,0.0,0 STARLINK-3718,1 52132U 22029AW  22230.33334491  .00000556  00000-0  52987-4 0  9998,2 52132  53.2159 142.1541 0002471  49.1483  38.4625 15.08865837 24770,6917.801,95.436,541.376,537.957,0.0
52132.0,STARLINK-3718,PAYLOAD,2022-08-18 14:00:01,15.08848883,0.0002275999999999,53.2161,141.0305,53.7825,312.5552,0.0024904,0.0003958,0.0,0 STARLINK-3718,1 52132U 22029AW  22230.58334491  .00039580  00000-0  24904-2 0  9990,2 52132  53.2161 141.0305 0002276  53.7825 312.5552 15.08848883  1304,6917.853,95.437,541.293,538.144,0.0
52132.0,STARLINK-3718,PAYLOAD,2022-08-18 22:00:00,15.08885255,0.0002292,53.2167,139.5341,53.426,324.5347,-0.0028680999999999,-0.00045703,0.0,0 STARLINK-3718,1 52132U 22029AW  22230.91667824 -.00045703  00000-0 -28681-2 0  9998,2 52132  53.2167 139.5341 0002292  53.4260 324.5347 15.08885255  1309,6917.7419999999975,95.435,541.193,538.0219999999998,0.0
52132.0,STARLINK-3718,PAYLOAD,2022-08-19 04:00:01,15.08864938,0.0002379999999999,53.2168,138.4125,51.0218,245.7307,-0.0067373,-0.00106017,0.0,0 STARLINK-3718,1 52132U 22029AW  22231.16668981 -.00106017  00000-0 -67373-2 0  9998,2 52132  53.2168 138.4125 0002380  51.0218 245.7307 15.08864938 24909,6917.804,95.436,541.316,538.023,0.0
52132.0,STARLINK-3718,PAYLOAD,2022-08-19 14:00:01,15.08792107,0.0002041999999999,53.2158,136.5413,50.7781,350.4199,0.0025885,0.00041095,0.0,0 STARLINK-3718,1 52132U 22029AW  22231.58334491  .00041095  00000-0  25885-2 0  9994,2 52132  53.2158 136.5413 0002042  50.7781 350.4199 15.08792107 24960,6918.026999999999,95.441,541.304,538.479,0.0
52132.0,STARLINK-3718,PAYLOAD,2022-08-19 22:00:00,15.08830756,0.0002166999999999,53.2159,135.0461,49.985,2.7621,-0.0015332,-0.00024601,0.0,0 STARLINK-3718,1 52132U 22029AW  22231.91667824 -.00024601  00000-0 -15332-2 0  9992,2 52132  53.2159 135.0461 0002167  49.9850   2.7621 15.08830756  1306,6917.909000000002,95.438,541.273,538.275,0.0
52132.0,STARLINK-3718,PAYLOAD,2022-08-20 06:00:00,15.08814851,0.0002253,53.2155,133.5503,46.6433,17.6758,0.0014812999999999,0.0002334999999999,0.0,0 STARLINK-3718,1 52132U 22029AW  22232.25001157  .00023350  00000-0  14813-2 0  9992,2 52132  53.2155 133.5503 0002253  46.6433  17.6758 15.08814851 25062,6917.956999999999,95.439,541.381,538.264,0.0
52132.0,STARLINK-3718,PAYLOAD,2022-08-20 14:00:01,15.08808537,0.0002088,53.2155,132.0523,52.8168,23.0908,0.0032578,0.00051898,0.0,0 STARLINK-3718,1 52132U 22029AW  22232.58334491  .00051898  00000-0  32578-2 0  9994,2 52132  53.2155 132.0523 0002088  52.8168  23.0908 15.08808537  1301,6917.977,95.44,541.286,538.3969999999998,0.0
52132.0,STARLINK-3718,PAYLOAD,2022-08-20 22:00:00,15.08852102,0.0002237,53.2156,130.5573,52.0209,35.4624,-0.0014377,-0.00023105,0.0,0 STARLINK-3718,1 52132U 22029AW  22232.91667824 -.00023105  00000-0 -14377-2 0  9999,2 52132  53.2156 130.5573 0002237  52.0209  35.4624 15.08852102  1303,6917.843000000003,95.437,541.256,538.161,0.0
52132.0,STARLINK-3718,PAYLOAD,2022-08-21 06:00:00,15.08843453,0.0002296999999999,53.2154,129.0613,48.0944,50.9802,-0.00011974,-2.194e-05,0.0,0 STARLINK-3718,1 52132U 22029AW  22233.25001157 -.00002194  00000-0 -11974-3 0  9994,2 52132  53.2154 129.0613 0002297  48.0944  50.9802 15.08843453 25211,6917.87,95.437,541.3240000000002,538.146,0.0
52132.0,STARLINK-3718,PAYLOAD,2022-08-21 14:00:01,15.08813345,0.0002089999999999,53.2155,127.5632,53.0686,57.6193,0.0016742999999999,0.0002644,0.0,0 STARLINK-3718,1 52132U 22029AW  22233.58334491  .00026440  00000-0  16743-2 0  9996,2 52132  53.2155 127.5632 0002090  53.0686  57.6193 15.08813345  1304,6917.962,95.439,541.273,538.381,0.0
52132.0,STARLINK-3718,PAYLOAD,2022-08-21 22:00:00,15.08838502,0.0002239,53.2156,126.0682,51.4703,70.7897,-0.0013867,-0.0002229,0.0,0 STARLINK-3718,1 52132U 22029AW  22233.91667824 -.00022290  00000-0 -13867-2 0  9997,2 52132  53.2156 126.0682 0002239  51.4703  70.7897 15.08838502  1300,6917.885,95.438,541.299,538.201,0.0
52132.0,STARLINK-3718,PAYLOAD,2022-08-22 12:00:00,15.088213,0.0002171999999999,53.216,123.4485,53.1336,359.4074,0.0020102999999999,0.00031835,0.0,0 STARLINK-3718,1 52132U 22029AW  22234.50001157  .00031835  00000-0  20103-2 0  9998,2 52132  53.2160 123.4485 0002172  53.1336 359.4074 15.08821300  1306,6917.938,95.439,541.305,538.3,0.0
52132.0,STARLINK-3718,PAYLOAD,2022-08-22 22:00:00,15.08854109,0.0002354,53.216,121.5793,52.5445,104.4825,-0.0011614,-0.00018732,0.0,0 STARLINK-3718,1 52132U 22029AW  22234.91667824 -.00018732  00000-0 -11614-2 0  9992,2 52132  53.2160 121.5793 0002354  52.5445 104.4825 15.08854109  1308,6917.837,95.437,541.331,538.0740000000002,0.0
52132.0,STARLINK-3718,PAYLOAD,2022-08-23 06:00:00,15.08855885,0.0002389,53.2161,120.0831,50.095,118.5283,-0.00061094,-0.00010003,0.0,0 STARLINK-3718,1 52132U 22029AW  22235.25001157 -.00010003  00000-0 -61094-3 0  9992,2 52132  53.2161 120.0831 0002389  50.0950 118.5283 15.08855885 25513,6917.831999999999,95.437,541.35,538.044,0.0
52132.0,STARLINK-3718,PAYLOAD,2022-08-23 14:00:01,15.0883079,0.0002211999999999,53.2164,118.5851,54.6231,125.6185,0.00043119,6.579e-05,0.0,0 STARLINK-3718,1 52132U 22029AW  22235.58334491  .00006579  00000-0  43119-3 0  9997,2 52132  53.2164 118.5851 0002212  54.6231 125.6185 15.08830790  1306,6917.909000000002,95.438,541.304,538.243,0.0
52132.0,STARLINK-3718,PAYLOAD,2022-08-23 22:00:01,15.08837773,0.0002358,53.2166,117.0903,52.0289,139.8641,-0.00099373,-0.00016068,0.0,0 STARLINK-3718,1 52132U 22029AW  22235.91668981 -.00016068  00000-0 -99373-3 0  9997,2 52132  53.2166 117.0903 0002358  52.0289 139.8641 15.08837773  1308,6917.887,95.438,541.383,538.121,0.0
52132.0,STARLINK-3718,PAYLOAD,2022-08-24 14:00:01,15.08823212,0.0002255999999999,53.2168,114.0961,56.2771,158.733,0.0023993,0.00038087,0.0,0 STARLINK-3718,1 52132U 22029AW  22236.58334491  .00038087  00000-0  23993-2 0  9994,2 52132  53.2168 114.0961 0002256  56.2771 158.7330 15.08823212 25720,6917.932,95.439,541.357,538.236,0.0
52132.0,STARLINK-3718,PAYLOAD,2022-08-24 22:00:00,15.08848328,0.0002419,53.2169,112.6015,53.5461,173.0565,-0.00081531,-0.00013244,0.0,0 STARLINK-3718,1 52132U 22029AW  22236.91667824 -.00013244  00000-0 -81531-3 0  9993,2 52132  53.2169 112.6015 0002419  53.5461 173.0565 15.08848328  1305,6917.855,95.437,541.393,538.047,0.0
52132.0,STARLINK-3718,PAYLOAD,2022-08-25 06:00:02,15.08860861,0.0002395,53.2168,111.1048,53.0018,185.2575,-0.0014874,-0.00023897,0.0,0 STARLINK-3718,1 52132U 22029AW  22237.25002315 -.00023897  00000-0 -14874-2 0  9999,2 52132  53.2168 111.1048 0002395  53.0018 185.2575 15.08860861 25825,6917.816999999999,95.436,541.3380000000002,538.025,0.0
52132.0,STARLINK-3718,PAYLOAD,2022-08-25 14:00:01,15.08846158,0.0002246,53.2169,109.6071,58.3379,191.4705,-1.8452e-05,-5.82e-06,0.0,0 STARLINK-3718,1 52132U 22029AW  22237.58334491 -.00000582  00000-0 -18452-4 0  9992,2 52132  53.2169 109.6071 0002246  58.3379 191.4705 15.08846158  1301,6917.861999999999,95.437,541.28,538.173,0.0
52132.0,STARLINK-3718,PAYLOAD,2022-08-25 22:00:00,15.08834793,0.0002336999999999,53.2168,108.1125,53.8815,207.5352,-0.0011445,-0.00018455,0.0,0 STARLINK-3718,1 52132U 22029AW  22237.91667824 -.00018455  00000-0 -11445-2 0  9999,2 52132  53.2168 108.1125 0002337  53.8815 207.5352 15.08834793  1309,6917.896,95.438,541.378,538.145,0.0
52132.0,STARLINK-3718,PAYLOAD,2022-08-26 06:00:00,15.08845803,0.000229,53.2165,106.6157,53.7007,219.2908,-0.0019598,-0.00031349,0.0,0 STARLINK-3718,1 52132U 22029AW  22238.25001157 -.00031349  00000-0 -19598-2 0  9992,2 52132  53.2165 106.6157 0002290  53.7007 219.2908 15.08845803 25974,6917.863,95.437,541.312,538.143,0.0
52132.0,STARLINK-3718,PAYLOAD,2022-08-26 14:00:01,15.08819518,0.0002186,53.2166,105.118,59.7772,224.8695,0.0022421,0.00035556,0.0,0 STARLINK-3718,1 52132U 22029AW  22238.58335648  .00035556  00000-0  22421-2 0  9994,2 52132  53.2166 105.1180 0002186  59.7772 224.8695 15.08819518  1304,6917.943,95.439,541.32,538.2959999999998,0.0
52132.0,STARLINK-3718,PAYLOAD,2022-08-26 22:00:00,15.08836481,0.0002340999999999,53.2164,103.6235,56.151,240.0189,-0.00052095,-8.569e-05,0.0,0 STARLINK-3718,1 52132U 22029AW  22238.91667824 -.00008569  00000-0 -52095-3 0  9992,2 52132  53.2164 103.6235 0002341  56.1510 240.0189 15.08836481 26077,6917.891,95.438,541.376,538.137,0.0
